STARLINK-37572          
1 69448U 26127F   26182.18759176  .00183029  00000+0  11695-2 0  9998
2 69448  53.1585 192.6771 0001390 113.0260 247.0907 15.75297461  3615
STARLINK-37643          
1 69449U 26127G   26182.12868604  .00236397  00000+0  14985-2 0  9992
2 69449  53.1588 193.0232 0001037  92.6977 267.4162 15.75316477  3608
STARLINK-37601          
1 69450U 26127H   26181.93801883  .00172252  00000+0  11040-2 0  9996
2 69450  53.1587 193.9665 0001216  31.3061 328.8031 15.75262467  3573
STARLINK-37578          
1 69451U 26127J   26182.11473970  .00214178  00000+0  13625-2 0  9995
2 69451  53.1560 192.9287 0001484 117.8076 242.3094 15.75302298  3607
STARLINK-37577          
1 69452U 26127K   26182.03767875  .00259959  00000+0  16448-2 0  9999
2 69452  53.1590 193.1546 0001115  90.6874 269.4274 15.75289103  3594
STARLINK-37500          
1 69453U 26127L   26182.17397448  .00186511  00000+0  11904-2 0  9995
2 69453  53.1565 192.5862 0001645 126.6377 233.4795 15.75313033  3619
STARLINK-37575          
1 69454U 26127M   26182.16036352  .00283686  00000+0  17871-2 0  9999
2 69454  53.1589 192.4955 0001416  76.4494 283.6684 15.75319314  3618
STARLINK-37642          
1 69455U 26127N   26182.11506997  .00218661  00000+0  13898-2 0  9998
2 69455  53.1558 192.9300 0001224  86.4493 273.6667 15.75309134  3609
STARLINK-37513          
1 69456U 26127P   26182.19717196  .00322711  00000+0  15681-2 0  9996
2 69456  53.1558 192.0000 0001478 131.9425 228.1724 15.81013006  3628
STARLINK-37563          
1 69457U 26127Q   26182.16489457  .00243812  00000+0  15435-2 0  9991
2 69457  53.1592 192.5238 0001170  88.8056 271.3098 15.75324224  3617
STARLINK-37565          
1 69458U 26127R   26182.15549519  .00305900  00000+0  19209-2 0  9997
2 69458  53.1582 192.4611 0001188 109.7352 250.3797 15.75328608  3615
STARLINK-37498          
1 69459U 26127S   26182.11020358  .00189841  00000+0  12120-2 0  9998
2 69459  53.1562 192.8969 0001240  82.5381 277.5781 15.75295008  3603
STARLINK-37384          
1 69460U 26127T   26182.16003296  .00251702  00000+0  15930-2 0  9995
2 69460  53.1589 192.4913 0001783  66.1682 293.9525 15.75307931  3611
STARLINK-37707          
1 69461U 26127U   26182.15582130  .00230023  00000+0  14591-2 0  9999
2 69461  53.1587 192.4620 0001229  89.6421 270.4740 15.75320311  3617
STARLINK-37525          
1 69462U 26127V   26182.15095391  .00210148  00000+0  13373-2 0  9991
2 69462  53.1580 192.4296 0001098 108.3630 251.7510 15.75307284  3616
STARLINK-37526          
1 69463U 26127W   26182.21018778  .00213004  00000+0  13545-2 0  9998
2 69463  53.1575 192.0867 0001031  82.0514 278.0623 15.75315367  3626
STARLINK-37574          
1 69464U 26127X   26182.15128167  .00153472  00000+0  98519-3 0  9993
2 69464  53.1576 192.4303 0001374 109.1827 250.9342 15.75287403  3610
STARLINK-37535          
1 69465U 26127Y   26182.14641697  .00213477  00000+0  13581-2 0  9998
2 69465  53.1568 192.3979 0001609  63.5822 296.5364 15.75302519  3615
STARLINK-37583          
1 69466U 26127Z   26182.16670139 -.00163224  00000+0 -10771-2 0  9998
2 69466  53.1583 191.9836 0001197 100.7595 167.0887 15.75326606  4899
STARLINK-37546          
1 69467U 26127AA  26181.95186743  .00145308  00000+0  93494-3 0  9993
2 69467  53.1567 193.3141 0001238  53.2729 306.8405 15.75261917  3581
STARLINK-37532          
1 69468U 26127AB  26181.60096581  .00156733  00000+0  78081-3 0  9995
2 69468  53.1563 194.6647 0001355  84.2397 275.8781 15.80941882  3537
STARLINK-37708          
1 69469U 26127AC  26181.95153823  .00138995  00000+0  89479-3 0  9990
2 69469  53.1566 193.3102 0000892  67.8160 292.2955 15.75271976  3588
STARLINK-37686          
1 69470U 26127AD  26182.01077368  .00223438  00000+0  14210-2 0  9996
2 69470  53.1575 192.9679 0001042  99.7187 260.3951 15.75280786  3597
STARLINK-37451          
1 69471U 26127AE  26182.03810543  .00179962  00000+0  89358-3 0  9997
2 69471  53.1570 192.4125 0001238  86.6071 273.5093 15.80942410  3608
DTC TEST OBJECT A       
1 69472U 26128A   26181.59257354  .00023228  00000+0  32804-3 0  9991
2 69472  54.9920 243.0721 0010283 335.1800  24.8740 15.56466739  3316
DTC TEST OBJECT B       
1 69473U 26128B   26178.37654890  .00024134  00000+0  33565-3 0  9992
2 69473  55.0021 257.9040 0009934 325.3113  34.7274 15.56860342  2801
TJS-25                  
1 69474U 26129A   26180.86927858 -.00000355  00000+0  00000+0 0  9992
2 69474   5.9710 330.2743 0002232 293.5561  87.3179  1.00272023   198
STARLINK-37816          
1 69478U 26131A   26182.05150970  .00182269  00000+0  92918-3 0  9992
2 69478  97.2836 203.1336 0001880 107.6254 252.5219 15.80895085  4358
STARLINK-37878          
1 69479U 26131B   26182.05712733  .00405109  00000+0  20178-2 0  9993
2 69479  97.2835 203.1265 0002006   5.4987 354.6303 15.80829468  4358
STARLINK-37817          
1 69480U 26131C   26180.78399261  .00246636  00000+0  12491-2 0  9997
2 69480  97.2831 201.7958 0001092  91.1658 268.9735 15.80871643  4156
