OBJECT_NAME,OBJECT_ID,EPOCH,MEAN_MOTION,ECCENTRICITY,INCLINATION,RA_OF_ASC_NODE,ARG_OF_PERICENTER,MEAN_ANOMALY,EPHEMERIS_TYPE,CLASSIFICATION_TYPE,NORAD_CAT_ID,ELEMENT_SET_NO,REV_AT_EPOCH,BSTAR,MEAN_MOTION_DOT,MEAN_MOTION_DDOT
STARLINK-37572,2026-127F,2026-07-01T04:30:07.928064,15.75297461,.000139,53.1585,192.6771,113.0260,247.0907,0,U,69448,999,361,.11695E-2,.183029E-2,0
STARLINK-37643,2026-127G,2026-07-01T03:05:18.473856,15.75316477,.0001037,53.1588,193.0232,92.6977,267.4162,0,U,69449,999,360,.14985E-2,.236397E-2,0
STARLINK-37601,2026-127H,2026-06-30T22:30:44.826912,15.75262467,.0001216,53.1587,193.9665,31.3061,328.8031,0,U,69450,999,357,.1104E-2,.172252E-2,0
STARLINK-37578,2026-127J,2026-07-01T02:45:13.510080,15.75302298,.0001484,53.1560,192.9287,117.8076,242.3094,0,U,69451,999,360,.13625E-2,.214178E-2,0
STARLINK-37577,2026-127K,2026-07-01T00:54:15.444000,15.75289103,.0001115,53.1590,193.1546,90.6874,269.4274,0,U,69452,999,359,.16448E-2,.259959E-2,0
STARLINK-37500,2026-127L,2026-07-01T04:10:31.395072,15.75313033,.0001645,53.1565,192.5862,126.6377,233.4795,0,U,69453,999,361,.11904E-2,.186511E-2,0
STARLINK-37575,2026-127M,2026-07-01T03:50:55.408128,15.75319314,.0001416,53.1589,192.4955,76.4494,283.6684,0,U,69454,999,361,.17871E-2,.283686E-2,0
STARLINK-37642,2026-127N,2026-07-01T02:45:42.045408,15.75309134,.0001224,53.1558,192.9300,86.4493,273.6667,0,U,69455,999,360,.13898E-2,.218661E-2,0
STARLINK-37513,2026-127P,2026-07-01T04:43:55.657344,15.81013006,.0001478,53.1558,192.0000,131.9425,228.1724,0,U,69456,999,362,.15681E-2,.322711E-2,0
STARLINK-37563,2026-127Q,2026-07-01T03:57:26.890848,15.75324224,.000117,53.1592,192.5238,88.8056,271.3098,0,U,69457,999,361,.15435E-2,.243812E-2,0
STARLINK-37565,2026-127R,2026-07-01T03:43:54.784416,15.75328608,.0001188,53.1582,192.4611,109.7352,250.3797,0,U,69458,999,361,.19209E-2,.3059E-2,0
STARLINK-37498,2026-127S,2026-07-01T02:38:41.589312,15.75295008,.000124,53.1562,192.8969,82.5381,277.5781,0,U,69459,999,360,.1212E-2,.189841E-2,0
STARLINK-37384,2026-127T,2026-07-01T03:50:26.847744,15.75307931,.0001783,53.1589,192.4913,66.1682,293.9525,0,U,69460,999,361,.1593E-2,.251702E-2,0
STARLINK-37707,2026-127U,2026-07-01T03:44:22.960320,15.75320311,.0001229,53.1587,192.4620,89.6421,270.4740,0,U,69461,999,361,.14591E-2,.230023E-2,0
STARLINK-37525,2026-127V,2026-07-01T03:37:22.417824,15.75307284,.0001098,53.1580,192.4296,108.3630,251.7510,0,U,69462,999,361,.13373E-2,.210148E-2,0
STARLINK-37526,2026-127W,2026-07-01T05:02:40.224192,15.75315367,.0001031,53.1575,192.0867,82.0514,278.0623,0,U,69463,999,362,.13545E-2,.213004E-2,0
STARLINK-37574,2026-127X,2026-07-01T03:37:50.736288,15.75287403,.0001374,53.1576,192.4303,109.1827,250.9342,0,U,69464,999,361,.98519E-3,.153472E-2,0
STARLINK-37535,2026-127Y,2026-07-01T03:30:50.426208,15.75302519,.0001609,53.1568,192.3979,63.5822,296.5364,0,U,69465,999,361,.13581E-2,.213477E-2,0
STARLINK-37583,2026-127Z,2026-07-01T04:00:03.000096,15.75326606,.0001197,53.1583,191.9836,100.7595,167.0887,0,U,69466,999,489,-.10771E-2,-.163224E-2,0
STARLINK-37546,2026-127AA,2026-06-30T22:50:41.345952,15.75261917,.0001238,53.1567,193.3141,53.2729,306.8405,0,U,69467,999,358,.93494E-3,.145308E-2,0
STARLINK-37532,2026-127AB,2026-06-30T14:25:23.445984,15.80941882,.00013555,53.1563,194.6647,84.2397,275.8781,0,U,69468,999,353,.78080762E-3,.156733E-2,0
STARLINK-37708,2026-127AC,2026-06-30T22:50:12.903072,15.75271976,.0000892,53.1566,193.3102,67.8160,292.2955,0,U,69469,999,358,.89479E-3,.138995E-2,0
STARLINK-37686,2026-127AD,2026-07-01T00:15:30.845952,15.75280786,.0001042,53.1575,192.9679,99.7187,260.3951,0,U,69470,999,359,.1421E-2,.223438E-2,0
STARLINK-37451,2026-127AE,2026-07-01T00:54:52.309152,15.80942410,.0001238,53.1570,192.4125,86.6071,273.5093,0,U,69471,999,360,.89358E-3,.179962E-2,0
DTC TEST OBJECT A,2026-128A,2026-06-30T14:13:18.353856,15.56466739,.00102834,54.9920,243.0721,335.1800,24.8740,0,U,69472,999,331,.32803973E-3,.23228E-3,0
DTC TEST OBJECT B,2026-128B,2026-06-27T09:02:13.824960,15.56860342,.0009934,55.0021,257.9040,325.3113,34.7274,0,U,69473,999,280,.3356545E-3,.24134E-3,0
TJS-25,2026-129A,2026-06-29T20:51:45.669312,1.00272023,.00022326,5.9710,330.2743,293.5561,87.3179,0,U,69474,999,19,0,-.355E-5,0
STARLINK-37816,2026-131A,2026-07-01T01:14:10.438080,15.80895085,.000188,97.2836,203.1336,107.6254,252.5219,0,U,69478,999,435,.92918E-3,.182269E-2,0
STARLINK-37878,2026-131B,2026-07-01T01:22:15.801312,15.80829468,.0002006,97.2835,203.1265,5.4987,354.6303,0,U,69479,999,435,.20178E-2,.405109E-2,0
STARLINK-37817,2026-131C,2026-06-29T18:48:56.961504,15.80871643,.00010928,97.2831,201.7958,91.1658,268.9735,0,U,69480,999,415,.12491096E-2,.246636E-2,0
